[{"OBJECT_NAME":"STARLINK-30535","OBJECT_ID":"2023-153L","EPOCH":"2026-03-09T01:20:09.280608","MEAN_MOTION":15.26739724,"ECCENTRICITY":0.00018594,"INCLINATION":42.9996,"RA_OF_ASC_NODE":70.2617,"ARG_OF_PERICENTER":273.2776,"MEAN_ANOMALY":86.7863,"EPHEMERIS_TYPE":0,"CLASSIFICATION_TYPE":"U","NORAD_CAT_ID":58001,"ELEMENT_SET_NO":999,"REV_AT_EPOCH":13480,"BSTAR":-3.906097e-6,"MEAN_MOTION_DOT":-3.65e-6,"MEAN_MOTION_DDOT":0},{"OBJECT_NAME":"TIANMU-1 12","OBJECT_ID":"2023-205B","EPOCH":"2026-03-09T23:16:21.235872","MEAN_MOTION":15.25812065,"ECCENTRICITY":0.00067383,"INCLINATION":97.3538,"RA_OF_ASC_NODE":91.8946,"ARG_OF_PERICENTER":353.283,"MEAN_ANOMALY":6.8317,"EPHEMERIS_TYPE":0,"CLASSIFICATION_TYPE":"U","NORAD_CAT_ID":58646,"ELEMENT_SET_NO":999,"REV_AT_EPOCH":12237,"BSTAR":0.00029269543,"MEAN_MOTION_DOT":7.417e-5,"MEAN_MOTION_DDOT":0}]
